{
  "type": "FeatureCollection",
  "features": [
    {
      "type": "Feature",
      "properties": {
        "admin1Name": "Kassala"
      },
      "geometry": {
        "type": "Polygon",
        "coordinates": [[[36.5, 15.5], [37.5, 15.5], [37.5, 16.5], [36.5, 16.5], [36.5, 15.5]]]
      }
    },
    {
      "type": "Feature",
      "properties": {
        "admin1Name": "Gedaref"
      },
      "geometry": {
        "type": "Polygon",
        "coordinates": [[[35.0, 14.0], [36.0, 14.0], [36.0, 15.0], [35.0, 15.0], [35.0, 14.0]]]
      }
    },
    {
      "type": "Feature",
      "properties": {
        "admin1Name": "Red Sea"
      },
      "geometry": {
        "type": "Polygon",
        "coordinates": [[[36.0, 18.0], [38.0, 18.0], [38.0, 22.0], [36.0, 22.0], [36.0, 18.0]]]
      }
    },
    {
      "type": "Feature",
      "properties": {
        "admin1Name": "Khartoum"
      },
      "geometry": {
        "type": "Polygon",
        "coordinates": [[[32.0, 15.0], [33.0, 15.0], [33.0, 16.0], [32.0, 16.0], [32.0, 15.0]]]
      }
    },
    {
      "type": "Feature",
      "properties": {
        "admin1Name": "Blue Nile"
      },
      "geometry": {
        "type": "Polygon",
        "coordinates": [[[33.5, 11.0], [35.5, 11.0], [35.5, 13.0], [33.5, 13.0], [33.5, 11.0]]]
      }
    },
    {
      "type": "Feature",
      "properties": {
        "admin1Name": "White Nile"
      },
      "geometry": {
        "type": "Polygon",
        "coordinates": [[[31.5, 13.0], [33.0, 13.0], [33.0, 15.0], [31.5, 15.0], [31.5, 13.0]]]
      }
    },
    {
      "type": "Feature",
      "properties": {
        "admin1Name": "Sennar"
      },
      "geometry": {
        "type": "Polygon",
        "coordinates": [[[32.5, 12.5], [34.5, 12.5], [34.5, 14.0], [32.5, 14.0], [32.5, 12.5]]]
      }
    },
    {
      "type": "Feature",
      "properties": {
        "admin1Name": "River Nile"
      },
      "geometry": {
        "type": "Polygon",
        "coordinates": [[[32.5, 16.0], [34.0, 16.0], [34.0, 18.0], [32.5, 18.0], [32.5, 16.0]]]
      }
    },
    {
      "type": "Feature",
      "properties": {
        "admin1Name": "Northern"
      },
      "geometry": {
        "type": "Polygon",
        "coordinates": [[[30.0, 18.0], [33.0, 18.0], [33.0, 22.0], [30.0, 22.0], [30.0, 18.0]]]
      }
    },
    {
      "type": "Feature",
      "properties": {
        "admin1Name": "South Kordofan"
      },
      "geometry": {
        "type": "Polygon",
        "coordinates": [[[29.0, 10.0], [31.5, 10.0], [31.5, 13.0], [29.0, 13.0], [29.0, 10.0]]]
      }
    },
    {
      "type": "Feature",
      "properties": {
        "admin1Name": "North Kordofan"
      },
      "geometry": {
        "type": "Polygon",
        "coordinates": [[[28.0, 13.0], [31.0, 13.0], [31.0, 16.0], [28.0, 16.0], [28.0, 13.0]]]
      }
    },
    {
      "type": "Feature",
      "properties": {
        "admin1Name": "West Kordofan"
      },
      "geometry": {
        "type": "Polygon",
        "coordinates": [[[27.0, 11.0], [29.0, 11.0], [29.0, 14.0], [27.0, 14.0], [27.0, 11.0]]]
      }
    },
    {
      "type": "Feature",
      "properties": {
        "admin1Name": "Central Darfur"
      },
      "geometry": {
        "type": "Polygon",
        "coordinates": [[[24.0, 12.0], [26.0, 12.0], [26.0, 14.0], [24.0, 14.0], [24.0, 12.0]]]
      }
    },
    {
      "type": "Feature",
      "properties": {
        "admin1Name": "East Darfur"
      },
      "geometry": {
        "type": "Polygon",
        "coordinates": [[[26.0, 11.0], [28.0, 11.0], [28.0, 13.0], [26.0, 13.0], [26.0, 11.0]]]
      }
    },
    {
      "type": "Feature",
      "properties": {
        "admin1Name": "North Darfur"
      },
      "geometry": {
        "type": "Polygon",
        "coordinates": [[[23.0, 14.0], [26.0, 14.0], [26.0, 20.0], [23.0, 20.0], [23.0, 14.0]]]
      }
    },
    {
      "type": "Feature",
      "properties": {
        "admin1Name": "South Darfur"
      },
      "geometry": {
        "type": "Polygon",
        "coordinates": [[[23.0, 9.0], [25.5, 9.0], [25.5, 12.0], [23.0, 12.0], [23.0, 9.0]]]
      }
    },
    {
      "type": "Feature",
      "properties": {
        "admin1Name": "West Darfur"
      },
      "geometry": {
        "type": "Polygon",
        "coordinates": [[[21.5, 12.0], [24.0, 12.0], [24.0, 15.0], [21.5, 15.0], [21.5, 12.0]]]
      }
    },
    {
      "type": "Feature",
      "properties": {
        "admin1Name": "Gezira"
      },
      "geometry": {
        "type": "Polygon",
        "coordinates": [[[32.0, 13.5], [34.0, 13.5], [34.0, 15.0], [32.0, 15.0], [32.0, 13.5]]]
      }
    }
  ]
}